COSMOS 2361 [-]         
1 25590U 98076A   23137.05502889  .00000087  00000+0  77466-4 0  9992
2 25590  82.9320 319.5600 0031550   3.7427 116.4356 13.73060432222313
COSMOS 2378 [-]         
1 26818U 01023A   23136.85403316  .00000061  00000+0  49581-4 0  9993
2 26818  82.9270 337.1386 0031928 308.3178  62.7326 13.74001076100027
COSMOS 2389 [-]         
1 27436U 02026A   23137.44074260  .00000056  00000+0  42462-4 0  9997
2 27436  82.9487 282.8470 0046887 162.2979 252.2701 13.75011820 52321
COSMOS 2398 [-]         
1 27818U 03023A   23136.43340950  .00000061  00000+0  49772-4 0  9996
2 27818  82.9493 246.2613 0030877 204.8341 225.1171 13.72245179999056
COSMOS 2407 [+]         
1 28380U 04028A   23137.55320674  .00000075  00000+0  61316-4 0  9995
2 28380  82.9619 189.0780 0039816 161.2676 310.0141 13.76153089945109
COSMOS 2414 [+]         
1 28521U 05002A   23136.87496460  .00000073  00000+0  48696-4 0  9990
2 28521  82.9500 176.1567 0038936 304.7654  54.9846 13.87704306927480
COSMOS 2429 [-]         
1 32052U 07038A   23136.73055423  .00000093  00000+0  80542-4 0  9998
2 32052  82.9784 316.7518 0039310 142.1706 218.2225 13.74998146786702
COSMOS 2454 [-]         
1 35635U 09039A   23137.46696764  .00000092  00000+0  62241-4 0  9996
2 35635  82.9551 161.4400 0017936 240.7320 231.2928 13.89732890701087
COSMOS 2463 [+]         
1 36519U 10017A   23136.60881174  .00000076  00000+0  66958-4 0  9993
2 36519  82.9619 358.1055 0036717  20.7814 357.8022 13.71507857653458
